     2.11           N: GPS NAV DATA                         RINEX VERSION / TYPE
teqc  2019Feb25                         20221121 12:23:41UTCPGM / RUN BY / DATE
OSX ker:10.11.6|Core i5|gcc 4.3 -m64|OSX ker:10.10+|=+      COMMENT
    6.5193D-09  2.2352D-08 -5.9605D-08 -1.1921D-07          ION ALPHA
    8.6016D+04  9.8304D+04 -6.5536D+04 -5.2429D+05          ION BETA
    0.000000000000D+00 5.329070518201D-15   589824     1533 DELTA-UTC: A0,A1,T,W
                                                            END OF HEADER
19 09  5 28 23 59 44.0 2.427818253636D-05-1.250555214938D-12 0.000000000000D+00
    1.000000000000D+00 3.406250000000D+00 4.753769442150D-09 7.143487424639D-01
    2.048909664154D-08 5.618847673759D-03 9.188428521156D-06 5.153605176926D+03
    4.319840000000D+05 8.940696716309D-08-1.371563707957D+00 3.911554813385D-08
    9.570308869893D-01 1.950312500000D+02-3.595721941737D-01-8.097122991959D-09
    2.628680923683D-10 1.000000000000D+00 1.533000000000D+03 0.000000000000D+00
    2.000000000000D+00 0.000000000000D+00-1.443549990654D-08 1.000000000000D+00
    4.306860000000D+05 4.000000000000D+00
